NORAD_CAT_ID,OBJECT_NAME,OBJECT_TYPE,EPOCH,MEAN_MOTION,ECCENTRICITY,INCLINATION,RA_OF_ASC_NODE,ARG_OF_PERICENTER,MEAN_ANOMALY,BSTAR,MEAN_MOTION_DOT,MEAN_MOTION_DDOT,TLE_LINE0,TLE_LINE1,TLE_LINE2,SEMIMAJOR_AXIS,PERIOD,APOGEE,PERIGEE,DECAYED
52486.0,STARLINK-3918,PAYLOAD,2022-05-13 14:00:01,15.80390568,0.0001689,53.2176,230.8566,28.6437,314.9256,-0.005047,-0.00881046,0.0,0 STARLINK-3918,1 52486U 22049AM  22133.58334491 -.00881046  00000-0 -50470-2 0  9997,2 52486  53.2176 230.8566 0001689  28.6437 314.9256 15.80390568  1304,6707.472,91.117,330.47,328.204,0.0
52486.0,STARLINK-3918,PAYLOAD,2022-05-13 16:00:00,15.80151726,0.0001706999999999,53.2166,230.4394,35.7617,62.2135,-0.0044004,-0.00769792,0.0,0 STARLINK-3918,1 52486U 22049AM  22133.66667824 -.00769792  00000-0 -44004-2 0  9994,2 52486  53.2166 230.4394 0001707  35.7617  62.2135 15.80151726  1319,6708.148,91.13,331.158,328.86800000000005,0.0
52486.0,STARLINK-3918,PAYLOAD,2022-05-14 06:00:00,15.79129824,0.0001636999999999,53.2174,227.5231,38.8532,138.3216,-0.0053117,-0.00875534,0.0,0 STARLINK-3918,1 52486U 22049AM  22134.25001157 -.00875534  00000-0 -53117-2 0  9998,2 52486  53.2174 227.5231 0001637  38.8532 138.3216 15.79129824  1404,6711.042,91.189,334.006,331.80800000000005,0.0
52486.0,STARLINK-3918,PAYLOAD,2022-05-14 14:00:01,15.78501875,0.000176,53.2174,225.862,31.9879,240.8531,-0.0054908,-0.00879173,0.0,0 STARLINK-3918,1 52486U 22049AM  22134.58334491 -.00879173  00000-0 -54908-2 0  9996,2 52486  53.2174 225.8620 0001760  31.9879 240.8531 15.78501875  1309,6712.821999999999,91.226,335.86800000000005,333.505,0.0
52486.0,STARLINK-3918,PAYLOAD,2022-05-14 22:00:00,15.77872145,0.0001481,53.2175,224.1992,32.6753,335.0778,-0.0056397,-0.0087766,0.0,0 STARLINK-3918,1 52486U 22049AM  22134.91667824 -.00877660  00000-0 -56397-2 0  9995,2 52486  53.2175 224.1992 0001481  32.6753 335.0778 15.77872145  1303,6714.608,91.262,337.467,335.478,0.0
52486.0,STARLINK-3918,PAYLOAD,2022-05-15 06:00:00,15.77240447,0.0001715,53.2177,222.5379,31.3213,70.5882,-0.0057665,-0.00872818,0.0,0 STARLINK-3918,1 52486U 22049AM  22135.25001157 -.00872818  00000-0 -57665-2 0  9993,2 52486  53.2177 222.5379 0001715  31.3213  70.5882 15.77240447  1562,6716.4,91.299,339.417,337.11300000000006,0.0
52486.0,STARLINK-3918,PAYLOAD,2022-05-15 14:00:01,15.76612527,0.000184,53.2176,220.8814,34.2516,161.1211,-0.0059515,-0.00875605,0.0,0 STARLINK-3918,1 52486U 22049AM  22135.58335648 -.00875605  00000-0 -59515-2 0  9997,2 52486  53.2176 220.8814 0001840  34.2516 161.1211 15.76612527  1309,6718.183000000001,91.335,341.285,338.8119999999999,0.0
52486.0,STARLINK-3918,PAYLOAD,2022-05-15 22:00:00,15.75985205,0.0001529,53.2174,219.223,36.2932,251.6567,-0.0061463,-0.00878903,0.0,0 STARLINK-3918,1 52486U 22049AM  22135.91667824 -.00878903  00000-0 -61463-2 0  9997,2 52486  53.2174 219.2230 0001529  36.2932 251.6567 15.75985205  1303,6719.965999999999,91.371,342.8590000000001,340.8040000000001,0.0
52486.0,STARLINK-3918,PAYLOAD,2022-05-16 06:00:02,15.75353396,0.0001649,53.2175,217.5666,29.5773,350.326,-0.006281,-0.00873979,0.0,0 STARLINK-3918,1 52486U 22049AM  22136.25002315 -.00873979  00000-0 -62810-2 0  9998,2 52486  53.2175 217.5666 0001649  29.5773 350.3260 15.75353396  1722,6721.763000000001,91.408,344.736,342.519,0.0
52486.0,STARLINK-3918,PAYLOAD,2022-05-16 14:00:01,15.74723926,0.0002203,53.2175,215.9148,21.5891,89.3778,-0.0064531,-0.00873664,0.0,0 STARLINK-3918,1 52486U 22049AM  22136.58334491 -.00873664  00000-0 -64531-2 0  9990,2 52486  53.2175 215.9148 0002203  21.5891  89.3778 15.74723926  1305,6723.554,91.445,346.9,343.93800000000016,0.0
52486.0,STARLINK-3918,PAYLOAD,2022-05-16 22:00:00,15.74095151,0.0001559,53.2176,214.2607,43.1013,158.2405,-0.0066435,-0.00874702,0.0,0 STARLINK-3918,1 52486U 22049AM  22136.91667824 -.00874702  00000-0 -66435-2 0  9995,2 52486  53.2176 214.2607 0001559  43.1013 158.2405 15.74095151  1302,6725.344,91.481,348.2580000000001,346.161,0.0
52486.0,STARLINK-3918,PAYLOAD,2022-05-17 06:00:00,15.73288388,0.0001667,53.2178,212.6093,39.1582,251.8249,-0.0009432,-0.00131447,0.0,0 STARLINK-3918,1 52486U 22049AM  22137.25001157 -.00131447  00000-0 -94320-3 0  9991,2 52486  53.2178 212.6093 0001667  39.1582 251.8249 15.73288388  1874,6727.643,91.528,350.63,348.38699999999994,0.0
52486.0,STARLINK-3918,PAYLOAD,2022-05-17 12:00:00,15.73205692,0.0001832,53.2176,211.3738,34.3736,233.3504,-2.1284e-05,-3.608e-05,0.0,0 STARLINK-3918,1 52486U 22049AM  22137.50001157 -.00003608  00000-0 -21284-4 0  9996,2 52486  53.2176 211.3738 0001832  34.3736 233.3504 15.73205692  1917,6727.879,91.533,350.976,348.511,0.0
52486.0,STARLINK-3918,PAYLOAD,2022-05-17 14:00:01,15.73206348,0.0001786999999999,53.2176,210.9617,32.5935,347.4291,-2.7754e-05,-4.515e-05,0.0,0 STARLINK-3918,1 52486U 22049AM  22137.58335648 -.00004515  00000-0 -27754-4 0  9995,2 52486  53.2176 210.9617 0001787  32.5935 347.4291 15.73206348  1300,6727.877,91.533,350.944,348.54,0.0
52486.0,STARLINK-3918,PAYLOAD,2022-05-17 20:00:01,15.73342667,0.0001873,53.2107,209.7187,35.3863,321.4447,-0.0010093,-0.00140794,0.0,0 STARLINK-3918,1 52486U 22049AM  22137.83334491 -.00140794  00000-0 -10093-2 0  9994,2 52486  53.2107 209.7187 0001873  35.3863 321.4447 15.73342667  1972,6727.488,91.525,350.61400000000015,348.093,0.0
52486.0,STARLINK-3918,PAYLOAD,2022-05-17 22:00:01,15.7331415,0.0001811,53.2112,209.3056,37.1061,72.0625,-0.00087696,-0.00122526,0.0,0 STARLINK-3918,1 52486U 22049AM  22137.91668981 -.00122526  00000-0 -87696-3 0  9994,2 52486  53.2112 209.3056 0001811  37.1061  72.0625 15.73314150  1301,6727.57,91.527,350.653,348.216,0.0
52486.0,STARLINK-3918,PAYLOAD,2022-05-18 06:00:00,15.73214125,0.0001651,53.2128,207.6555,39.6507,158.4448,0.00028904,0.00040164,0.0,0 STARLINK-3918,1 52486U 22049AM  22138.25001157  .00040164  00000-0  28904-3 0  9990,2 52486  53.2128 207.6555 0001651  39.6507 158.4448 15.73214125  2031,6727.855,91.532,350.831,348.6090000000001,0.0
52486.0,STARLINK-3918,PAYLOAD,2022-05-18 12:00:00,15.73253183,0.0001829,53.2138,206.4199,29.0036,145.8121,-0.0009639,-0.00134078,0.0,0 STARLINK-3918,1 52486U 22049AM  22138.50001157 -.00134078  00000-0 -96390-3 0  9992,2 52486  53.2138 206.4199 0001829  29.0036 145.8121 15.73253183  2079,6727.744000000002,91.53,350.839,348.37800000000016,0.0
52486.0,STARLINK-3918,PAYLOAD,2022-05-18 14:00:01,15.73183494,0.0001857,53.2143,206.0078,28.247,258.8259,-0.00013325,-0.00019266,0.0,0 STARLINK-3918,1 52486U 22049AM  22138.58334491 -.00019266  00000-0 -13325-3 0  9998,2 52486  53.2143 206.0078 0001857  28.2470 258.8259 15.73183494  1300,6727.941999999999,91.534,351.057,348.55800000000005,0.0
52486.0,STARLINK-3918,PAYLOAD,2022-05-18 20:00:01,15.73233766,0.0001786999999999,53.2145,204.7694,25.647,238.1144,-0.00048478,-0.00068209,0.0,0 STARLINK-3918,1 52486U 22049AM  22138.83334491 -.00068209  00000-0 -48478-3 0  9994,2 52486  53.2145 204.7694 0001787  25.6470 238.1144 15.73233766  2127,6727.799,91.531,350.866,348.462,0.0
52486.0,STARLINK-3918,PAYLOAD,2022-05-18 22:00:00,15.7322207,0.0001761999999999,53.2148,204.3565,28.3969,347.6034,-0.00039168,-0.00055285,0.0,0 STARLINK-3918,1 52486U 22049AM  22138.91667824 -.00055285  00000-0 -39168-3 0  9998,2 52486  53.2148 204.3565 0001762  28.3969 347.6034 15.73222070  1308,6727.831999999999,91.532,350.8830000000001,348.51199999999994,0.0
52486.0,STARLINK-3918,PAYLOAD,2022-05-19 06:00:00,15.73206249,0.000205,53.2177,202.7121,34.918,69.7114,-2.0038e-05,-3.433e-05,0.0,0 STARLINK-3918,1 52486U 22049AM  22139.25001157 -.00003433  00000-0 -20038-4 0  9992,2 52486  53.2177 202.7121 0002050  34.9180  69.7114 15.73206249  2198,6727.877,91.533,351.122,348.36300000000006,0.0
52486.0,STARLINK-3918,PAYLOAD,2022-05-19 14:00:01,15.73127294,0.0002049,53.2142,201.0591,28.5643,165.3736,0.0007699,0.00108501,0.0,0 STARLINK-3918,1 52486U 22049AM  22139.58335648  .00108501  00000-0  76990-3 0  9990,2 52486  53.2142 201.0591 0002049  28.5643 165.3736 15.73127294  1301,6728.102,91.537,351.346,348.589,0.0
52486.0,STARLINK-3918,PAYLOAD,2022-05-19 22:00:00,15.7322626,0.0001891,53.2139,199.4077,33.6023,249.1767,-0.00027893,-0.00039629,0.0,0 STARLINK-3918,1 52486U 22049AM  22139.91667824 -.00039629  00000-0 -27893-3 0  9995,2 52486  53.2139 199.4077 0001891  33.6023 249.1767 15.73226260  2296,6727.82,91.532,350.958,348.413,0.0
52486.0,STARLINK-3918,PAYLOAD,2022-05-20 14:00:01,15.73192367,0.0002086,53.2143,196.1105,27.6339,73.0249,-0.00019659,-0.00028113,0.0,0 STARLINK-3918,1 52486U 22049AM  22140.58334491 -.00028113  00000-0 -19659-3 0  9998,2 52486  53.2143 196.1105 0002086  27.6339  73.0249 15.73192367  2409,6727.917,91.534,351.185,348.37800000000016,0.0
52486.0,STARLINK-3918,PAYLOAD,2022-05-20 22:00:00,15.73160267,0.000193,53.2145,194.459,27.2472,162.3271,-0.00043039,-0.00060493,0.0,0 STARLINK-3918,1 52486U 22049AM  22140.91667824 -.00060493  00000-0 -43039-3 0  9990,2 52486  53.2145 194.4590 0001930  27.2472 162.3271 15.73160267  1300,6728.0080000000025,91.535,351.172,348.575,0.0
52486.0,STARLINK-3918,PAYLOAD,2022-05-21 06:00:00,15.73138896,0.0001948,53.2145,192.8099,28.2554,250.1956,0.00030746,0.00042638,0.0,0 STARLINK-3918,1 52486U 22049AM  22141.25001157  .00042638  00000-0  30746-3 0  9999,2 52486  53.2145 192.8099 0001948  28.2554 250.1956 15.73138896  1306,6728.069,91.537,351.245,348.624,0.0
52486.0,STARLINK-3918,PAYLOAD,2022-05-21 14:00:01,15.73170336,0.0002209,53.2139,191.162,24.3346,343.0713,0.00065556,0.00092287,0.0,0 STARLINK-3918,1 52486U 22049AM  22141.58335648  .00092287  00000-0  65556-3 0  9992,2 52486  53.2139 191.1620 0002209  24.3346 343.0713 15.73170336  2565,6727.98,91.535,351.331,348.3590000000001,0.0
52486.0,STARLINK-3918,PAYLOAD,2022-05-21 20:00:01,15.7323747,0.0001968,53.2138,189.9233,24.6479,319.3854,-0.00028635,-0.00040682,0.0,0 STARLINK-3918,1 52486U 22049AM  22141.83334491 -.00040682  00000-0 -28635-3 0  9996,2 52486  53.2138 189.9233 0001968  24.6479 319.3854 15.73237470  2600,6727.788000000001,91.531,350.977,348.329,0.0
